INTELSAT 701 (IS-701)   
1 22871U 93066A   17287.33749573 -.00000169  00000-0  00000-0 0  9997
2 22871   4.4207  66.4345 0003295 169.8138  85.6255  0.99325008 87633
INTELSAT 26 (IS-26)     
1 24732U 97007A   17287.61557125 -.00000030  00000-0  00000-0 0  9992
2 24732   7.6404  49.1603 0004490 184.8937  76.7104  1.00271694 40976
GALAXY 25 (G-25)        
1 24812U 97026A   17288.19210821 -.00000189  00000-0  00000-0 0  9990
2 24812   0.0234 267.9852 0003424 294.6525 157.3654  1.00272184 74617
INTELSAT 5 (IS-5)       
1 24916U 97046A   17287.69530755 -.00000164  00000-0  00000+0 0  9994
2 24916   3.7756  70.4734 0003880 156.7525 203.4384  1.00272209 73857
INTELSAT 805 (IS-805)   
1 25371U 98037A   17288.49841229 -.00000057  00000-0  00000-0 0  9993
2 25371   0.2641  93.8057 0003288 129.3919 149.4608  1.00271696 70797
AFRISTAR                
1 25515U 98063A   17288.88729889  .00000102  00000-0  00000+0 0  9991
2 25515   3.5284  69.3043 0004011 145.4161 150.3060  1.00273214 69375
INTELSAT 8 (IS-8)       
1 25522U 98065A   17288.48694854 -.00000203  00000-0  00000-0 0  9994
2 25522   1.2765  87.2951 0297063 222.8291  86.1142  0.95186102 14665
GALAXY 11 (G-11)        
1 26038U 99071A   17288.86003997  .00000111  00000-0  00000+0 0  9995
2 26038   0.0809  79.1235 0001092 247.1868  52.8097  1.00272388 65354
SIRIUS-1                
1 26390U 00035A   17288.13714242 -.00000035  00000-0  00000-0 0  9997
2 26390  59.4995 223.8277 0002887 256.6238 286.1238  1.57876892 21894
INTELSAT 9 (IS-9)       
1 26451U 00043A   17288.70462619 -.00000239  00000-0  00000+0 0  9990
2 26451   3.7647  70.6933 0003064 155.5300  22.3793  1.00270716 63095
INTELSAT 12 (IS-12)     
1 26590U 00068A   17288.58731017  .00000111  00000-0  00000-0 0  9997
2 26590   0.7369  92.1272 0003262 137.8253  50.7971  1.00272335 19961
INTELSAT 1R (IS-1R)     
1 26608U 00072A   17288.69320243 -.00000140  00000-0  00000+0 0  9991
2 26608   0.5568  94.4341 0000253 235.3584 105.9655  1.00175984 61905
INTELSAT 10 (IS-10)     
1 26766U 01019A   17288.20515220  .00000100  00000-0  00000-0 0  9992
2 26766   1.7648  84.5701 0001740 152.4071 268.3558  1.00275097 13880
INTELSAT 901 (IS-901)   
1 26824U 01024A   17288.32286598 -.00000167  00000-0  00000+0 0  9992
2 26824   0.0155 262.4617 0002433 304.4967 275.3268  1.00270002 59849
INTELSAT 902 (IS-902)   
1 26900U 01039A   17288.58729882  .00000006  00000-0  00000-0 0  9991
2 26900   0.0459  95.3170 0002906 106.2018  96.2378  1.00273379 58962
DIRECTV 4S              
1 26985U 01052A   17288.48309801 -.00000139  00000-0  00000-0 0  9991
2 26985   0.0257 121.2305 0002781  90.9858 244.7238  1.00271764 19555
INTELSAT 904 (IS-904)   
1 27380U 02007A   17288.63015118  .00000110  00000-0  00000-0 0  9992
2 27380   0.0253 134.4424 0002562  74.0185  87.8578  1.00272453 20014
INTELSAT 903 (IS-903)   
1 27403U 02016A   17288.41090958 -.00000250  00000-0  00000-0 0  9995
2 27403   0.0961  93.5507 0001622  62.5068 344.5149  1.00271732 13929
DIRECTV 5 (TEMPO 1)     
1 27426U 02023A   17288.23928356 -.00000082  00000-0  00000-0 0  9993
2 27426   0.0194 199.3768 0003293  17.3912 143.2094  1.00270247 56579
INTELSAT 905 (IS-905)   
1 27438U 02027A   17288.41090958 -.00000210  00000-0  00000-0 0  9991
2 27438   0.0138 228.5507 0002523 338.6008 300.4326  1.00271199 19623
GALAXY 3C (G-3C)        
1 27445U 02030A   17288.19753205 -.00000177  00000-0  00000-0 0  9991
2 27445   0.0182 273.5865 0001929  45.7570  40.6604  1.00269940 14837
INTELSAT 906 (IS-906)   
1 27513U 02041A   17288.87684821 -.00000012  00000-0  00000+0 0  9998
2 27513   0.0270 251.3544 0002903 316.1447 196.9270  1.00271608 55226
INTELSAT 907 (IS-907)   
1 27683U 03007A   17288.01041971 -.00000228  00000-0  00000-0 0  9998
2 27683   0.0121 227.4730 0002666 337.9444 154.5878  1.00270971 53688
GALAXY 12 (G-12)        
1 27715U 03013B   17288.47219402  .00000032  00000-0  00000-0 0  9999
2 27715   0.0497  98.5705 0002176 127.5005 199.1253  1.00272599 20382
GALAXY 23 (G-23)        
1 27854U 03034A   17288.49282043 -.00000014  00000-0  00000+0 0  9999
2 27854   0.0226 255.5474 0003029 309.2868 235.8297  1.00272250 56792
GALAXY 13 (HORIZONS-1)  
1 27954U 03044A   17288.41021876  .00000022  00000-0  00000-0 0  9997
2 27954   0.0298 120.0249 0001961 101.2846 183.5108  1.00272931 14821
DIRECTV 7S              
1 28238U 04016A   17288.24629275 -.00000026  00000-0  00000+0 0  9995
2 28238   0.0452  63.5006 0002980 148.9364 141.1476  1.00272923 49306
INTELSAT 10-02          
1 28358U 04022A   17288.40118834 -.00000037  00000-0  00000-0 0  9990
2 28358   0.0185 152.9449 0001690 157.3913 217.2497  1.00271091 48893
XM-3 (RHYTHM)           
1 28626U 05008A   17288.46157037 -.00000232  00000-0  00000-0 0  9994
2 28626   0.0302  66.2908 0000275 169.6525 229.3195  1.00270632 10890
SPACEWAY 1              
1 28644U 05015A   17288.34268465 -.00000128  00000-0  00000-0 0  9991
2 28644   0.0139 217.2233 0000127 185.6886   1.5946  1.00270134 14829
DIRECTV 8               
1 28659U 05019A   17288.21359857 -.00000142  00000-0  00000+0 0  9998
2 28659   0.0140 184.9184 0003331  33.9364 141.1213  1.00269889 45432
GALAXY 28 (G-28)        
1 28702U 05022A   17288.85188312 -.00000211  00000-0  00000+0 0  9994
2 28702   0.0222 223.8440 0000207 163.2031 215.1908  1.00270493 45073
GALAXY 14 (G-14)        
1 28790U 05030A   17288.49282043  .00000011  00000-0  00000-0 0  9994
2 28790   0.0470  84.3042 0002413 127.2063 225.1269  1.00271127 44568
GALAXY 15 (G-15)        
1 28884U 05041A   17288.65686858  .00000052  00000-0  00000+0 0  9994
2 28884   0.0465  88.8722 0001546 132.3164 266.6785  1.00272556 43878
SPACEWAY 2              
1 28903U 05046B   17288.85674251 -.00000153  00000-0  00000+0 0  9990
2 28903   0.0475  58.1976 0000374 265.4876 270.2672  1.00271729 43741
GALAXY 16 (G-16)        
1 29236U 06023A   17288.48309801 -.00000153  00000-0  00000-0 0  9992
2 29236   0.0160 256.0315 0002539 309.1215 253.9778  1.00272512 41470
DIRECTV 9S              
1 29494U 06043A   17288.48309801 -.00000140  00000-0  00000-0 0  9996
2 29494   0.0095 186.4079 0003023  20.2753 250.3550  1.00271848 19647
XM-4 (BLUES)            
1 29520U 06049A   17288.59047589 -.00000049  00000-0  00000+0 0  9993
2 29520   0.0334  65.8905 0000371 277.9906 137.7848  1.00271421 40240
GALAXY 17 (G-17)        
1 31307U 07016B   17288.46643323 -.00000201  00000-0  00000+0 0  9998
2 31307   0.0154 316.0567 0003006 247.6582 257.4096  1.00272138 38320
DIRECTV 10              
1 31862U 07032A   17288.21917302 -.00000129  00000-0  00000-0 0  9996
2 31862   0.0069 358.9566 0000285 247.4297 113.6289  1.00272222 13887
SPACEWAY 3              
1 32018U 07036A   17288.85188312 -.00000178  00000-0  00000+0 0  9998
2 32018   0.0404  58.2699 0000197 312.1893 225.8381  1.00271999 37374
INTELSAT 11 (IS-11)     
1 32253U 07044B   17288.31299279 -.00000295  00000-0  00000-0 0  9995
2 32253   0.0172 205.4874 0001914  32.2910 215.9690  1.00270892 36841
HORIZONS-2              
1 32388U 07063B   17288.90315810 -.00000209  00000-0  00000+0 0  9994
2 32388   0.0162 161.1876 0002468  48.6877 224.7446  1.00272570 36131
DIRECTV 11              
1 32729U 08013A   17288.85674251 -.00000152  00000-0  00000+0 0  9997
2 32729   0.0239  79.4224 0000147  17.9416 136.4682  1.00272046 35186
GALAXY 18 (G-18)        
1 32951U 08024A   17288.27496223 -.00000001  00000-0  00000-0 0  9997
2 32951   0.0133 157.9239 0002858  47.9284 154.1515  1.00273382 14140
INTELSAT 25 (IS-25)     
1 33153U 08034A   17288.02146451 -.00000250  00000-0  00000+0 0  9996
2 33153   0.0111 200.1889 0002509  40.0325 119.7721  1.00272318 33882
GALAXY 19 (G-19)        
1 33376U 08045A   17288.20294718 -.00000166  00000-0  00000-0 0  9992
2 33376   0.0095 220.5136 0002892 344.5040 154.9866  1.00272202 33199
SIRIUS FM-5             
1 35493U 09034A   17288.46157037 -.00000227  00000-0  00000+0 0  9990
2 35493   0.0202 284.2008 0000725  90.2666  89.7553  1.00272422 30221
INTELSAT 14 (IS-14)     
1 36097U 09064A   17288.05889790 -.00000300  00000-0  00000+0 0  9999
2 36097   0.0230 229.0399 0002442 346.4681 144.4757  1.00269130 28958
INTELSAT 15 (IS-15)     
1 36106U 09067A   17288.57757778 -.00000212  00000-0  00000-0 0  9993
2 36106   0.0128 101.4698 0002197 118.2975  97.6234  1.00271930  9553
DIRECTV 12              
1 36131U 09075A   17288.34632865 -.00000129  00000-0  00000+0 0  9990
2 36131   0.0141 220.3243 0000121  58.5445 127.0784  1.00269957 28630
INTELSAT 16 (IS-16)     
1 36397U 10006A   17288.32219321 -.00000311  00000-0  00000+0 0  9999
2 36397   0.0104 258.4361 0001616 328.6619 214.8451  1.00270927 27982
XM-5                    
1 37185U 10053A   17288.85188312 -.00000231  00000-0  00000+0 0  9991
2 37185   0.0219 222.6845 0001922 140.4301 242.9170  1.00269756 25697
INTELSAT 17 (IS-17)     
1 37238U 10065B   17288.87684821 -.00000028  00000-0  00000+0 0  9995
2 37238   0.0197 171.1070 0002983  41.8692 193.2880  1.00272567 25177
INTELSAT NEW DAWN       
1 37392U 11016A   17288.62587512  .00000129  00000-0  00000-0 0  9997
2 37392   0.0178 223.1032 0001690  42.9981  16.4185  1.00276176 21552
INTELSAT 18 (IS-18)     
1 37834U 11056A   17288.72948628  .00000026  00000-0  00000+0 0  9997
2 37834   0.0127 136.4992 0001850  68.6267 261.9294  1.00268527 22109
INTELSAT 22 (IS-22)     
1 38098U 12011A   17288.73174334 -.00000086  00000-0  00000+0 0  9995
2 38098   0.0115  78.5751 0002257 125.9089 155.5234  1.00272711 20301
INTELSAT 19 (IS-19)     
1 38356U 12030A   17288.47160886 -.00000083  00000-0  00000-0 0  9999
2 38356   0.0150  81.0761 0002997 131.9510 146.9723  1.00272304 18711
INTELSAT 20 (IS-20)     
1 38740U 12043A   17287.74450625 -.00000051  00000-0  00000+0 0  9996
2 38740   0.0137 176.3320 0002543   5.1543 178.5314  1.00272096 19072
INTELSAT 21 (IS-21)     
1 38749U 12045A   17288.09490637 -.00000311  00000-0  00000+0 0  9992
2 38749   0.0097 162.3956 0002129  44.6297 152.9819  1.00272813 18881
INTELSAT 23 (IS-23)     
1 38867U 12057A   17288.08111184 -.00000311  00000-0  00000-0 0  9993
2 38867   0.0094 209.3035 0001695   2.0601 148.6447  1.00270158 18253
SIRIUS FM-6             
1 39360U 13058A   17288.25600336 -.00000044  00000-0  00000+0 0  9997
2 39360   0.0198 259.9546 0000509 207.1494 252.9198  1.00272186 14594
INTELSAT 30 (IS-30)     
1 40271U 14062A   17288.52679196 -.00000178  00000-0  00000+0 0  9994
2 40271   0.0187 230.5986 0001927 221.3494  26.9098  1.00272595 11017
INTELSAT 34 (IS-34)     
1 40874U 15039A   17288.08800590 -.00000312  00000-0  00000+0 0  9993
2 40874   0.0196 235.6767 0000214 211.8096 272.5345  1.00273471  7922
INTELSAT 29E (IS-29E)   
1 41308U 16004A   17288.07277256 -.00000309  00000-0  00000+0 0  9991
2 41308   0.0055 210.8520 0001647 359.4874 149.6694  1.00270828  6401
INTELSAT 31 (IS-31)     
1 41581U 16035A   17287.20029362 -.00000200  00000-0  00000+0 0  9995
2 41581   0.0219 247.7500 0009719 311.7393 160.4926  1.00448989  4938
INTELSAT 36 (IS-36)     
1 41747U 16053A   17287.74448746 -.00000051  00000-0  00000-0 0  9994
2 41747   0.0222 325.5847 0003351  11.0113  23.4074  1.00271255  4236
INTELSAT 33E (IS-33E)   
1 41748U 16053B   17288.76528334  .00000023  00000-0  00000+0 0  9997
2 41748   0.0088  98.3816 0003176 121.4778 140.1172  1.00269872  4470
INTELSAT 32E (IS-32E)   
1 41945U 17007B   17288.05391597 -.00000296  00000-0  00000+0 0  9990
2 41945   0.0219 210.1420 0001490 331.6591 178.1984  1.00268212  2494
INTELSAT 35E (IS-35E)   
1 42818U 17041A   17288.02982664 -.00000265  00000-0  00000+0 0  9992
2 42818   0.0148 238.2136 0001877 331.7901 150.0039  1.00271275  1082
INTELSAT 37E (IS-37E)   
1 42950U 17059A   17287.49042019 -.00000150  00000-0  00000+0 0  9992
2 42950   0.1255 194.3630 1618492 157.2796 155.0887  1.25634743   277
